TISAT 1                 
1 36799U 10035E   26068.75703561  .00024554  00000+0  91005-3 0  9996
2 36799  98.0645   6.8512 0001343 159.3030 200.8262 15.27628633852505
STARLINK-34182          
1 64013U 25101V   26068.17831815  .00058909  00000+0  21296-2 0  9991
2 64013  43.0053 357.6816 0002042 294.4039  65.6600 15.27635276 47015
